start=new Date('2022-03-07T00:00:00.000Z').valueOf();
sats=[{"EPHEMERIS_TYPE":"0","MEAN_ELEMENT_THEORY":"SGP4","PERIOD":"95.592","APOAPSIS":"548.469","SEMIMAJOR_AXIS":"6925.342","MEAN_MOTION":"15.06402170","ELEMENT_SET_NO":"999","ARG_OF_PERICENTER":"58.8954","RA_OF_ASC_NODE":"83.5441","BSTAR":"0.00005022400000","TLE_LINE1":"1 48373U 21038W   22065.74337948  .00000467  00000-0  50224-4 0  9993","OBJECT_TYPE":"PAYLOAD","OBJECT_ID":"2021-038W","ECCENTRICITY":"0.00018220","FILE":"3347887","RCS_SIZE":"LARGE","TLE_LINE2":"2 48373  53.0546  83.5441 0001822  58.8954 301.2214 15.06402170 47108","MEAN_MOTION_DDOT":"0.0000000000000","NORAD_CAT_ID":"48373","MEAN_MOTION_DOT":"0.00000467","TIME_SYSTEM":"UTC","SITE":"AFETR","OBJECT_NAME":"STARLINK-2609","CENTER_NAME":"EARTH","GP_ID":"198076438","MEAN_ANOMALY":"301.2214","PERIAPSIS":"545.945","COUNTRY_CODE":"US","CLASSIFICATION_TYPE":"U","INCLINATION":"53.0546","LAUNCH_DATE":"2021-05-04","EPOCH":"2022-03-06T17:50:27.987072","REV_AT_EPOCH":"4710","REF_FRAME":"TEME","DECAY_DATE":null},{"GP_ID":"198076924","COUNTRY_CODE":"US","PERIAPSIS":"545.943","MEAN_ANOMALY":"302.8446","INCLINATION":"53.0555","LAUNCH_DATE":"2021-05-04","CLASSIFICATION_TYPE":"U","EPOCH":"2022-03-06T17:45:09.420768","REF_FRAME":"TEME","REV_AT_EPOCH":"4710","DECAY_DATE":null,"APOAPSIS":"548.477","PERIOD":"95.592","MEAN_ELEMENT_THEORY":"SGP4","EPHEMERIS_TYPE":"0","SEMIMAJOR_AXIS":"6925.345","ARG_OF_PERICENTER":"57.2719","ELEMENT_SET_NO":"999","MEAN_MOTION":"15.06401167","OBJECT_ID":"2021-038X","OBJECT_TYPE":"PAYLOAD","TLE_LINE1":"1 48374U 21038X   22065.73969237  .00000286  00000-0  38094-4 0  9995","BSTAR":"0.00003809400000","RA_OF_ASC_NODE":"83.5516","TLE_LINE2":"2 48374  53.0555  83.5516 0001830  57.2719 302.8446 15.06401167 47102","RCS_SIZE":"LARGE","ECCENTRICITY":"0.00018300","FILE":"3347898","NORAD_CAT_ID":"48374","MEAN_MOTION_DDOT":"0.0000000000000","MEAN_MOTION_DOT":"0.00000286","OBJECT_NAME":"STARLINK-2604","CENTER_NAME":"EARTH","SITE":"AFETR","TIME_SYSTEM":"UTC"},{"CENTER_NAME":"EARTH","OBJECT_NAME":"STARLINK-2603","TIME_SYSTEM":"UTC","SITE":"AFETR","MEAN_MOTION_DOT":"0.00000355","NORAD_CAT_ID":"48375","MEAN_MOTION_DDOT":"0.0000000000000","TLE_LINE2":"2 48375  53.0540  83.5672 0001987  54.3998 305.7176 15.06398551 47104","RCS_SIZE":"LARGE","ECCENTRICITY":"0.00019870","FILE":"3347898","OBJECT_TYPE":"PAYLOAD","OBJECT_ID":"2021-038Y","BSTAR":"0.00004271300000","TLE_LINE1":"1 48375U 21038Y   22065.73600386  .00000355  00000-0  42713-4 0  9993","RA_OF_ASC_NODE":"83.5672","ARG_OF_PERICENTER":"54.3998","ELEMENT_SET_NO":"999","MEAN_MOTION":"15.06398551","SEMIMAJOR_AXIS":"6925.353","APOAPSIS":"548.594","PERIOD":"95.592","MEAN_ELEMENT_THEORY":"SGP4","EPHEMERIS_TYPE":"0","DECAY_DATE":null,"REF_FRAME":"TEME","REV_AT_EPOCH":"4710","EPOCH":"2022-03-06T17:39:50.733504","LAUNCH_DATE":"2021-05-04","INCLINATION":"53.0540","CLASSIFICATION_TYPE":"U","COUNTRY_CODE":"US","PERIAPSIS":"545.842","MEAN_ANOMALY":"305.7176","GP_ID":"198076932"},{"EPOCH":"2022-03-06T08:01:18.203808","LAUNCH_DATE":"2021-05-04","INCLINATION":"53.0552","CLASSIFICATION_TYPE":"U","DECAY_DATE":null,"REF_FRAME":"TEME","REV_AT_EPOCH":"4645","GP_ID":"198066485","COUNTRY_CODE":"US","PERIAPSIS":"546.009","MEAN_ANOMALY":"298.6781","NORAD_CAT_ID":"48376","MEAN_MOTION_DDOT":"0.0000000000000","TLE_LINE2":"2 48376  53.0552  85.3793 0001713  61.4381 298.6781 15.06405820 46451","RCS_SIZE":"LARGE","ECCENTRICITY":"0.00017130","FILE":"3347638","OBJECT_NAME":"STARLINK-2610","CENTER_NAME":"EARTH","TIME_SYSTEM":"UTC","SITE":"AFETR","MEAN_MOTION_DOT":"0.00001683","SEMIMAJOR_AXIS":"6925.331","APOAPSIS":"548.382","MEAN_ELEMENT_THEORY":"SGP4","PERIOD":"95.592","EPHEMERIS_TYPE":"0","OBJECT_ID":"2021-038Z","OBJECT_TYPE":"PAYLOAD","BSTAR":"0.00013181000000","TLE_LINE1":"1 48376U 21038Z   22065.33423847  .00001683  00000-0  13181-3 0  9996","RA_OF_ASC_NODE":"85.3793","ARG_OF_PERICENTER":"61.4381","ELEMENT_SET_NO":"999","MEAN_MOTION":"15.06405820"},{"COUNTRY_CODE":"US","PERIAPSIS":"546.061","MEAN_ANOMALY":"297.8293","GP_ID":"198067237","DECAY_DATE":null,"REF_FRAME":"TEME","REV_AT_EPOCH":"4647","EPOCH":"2022-03-06T11:07:04.486368","LAUNCH_DATE":"2021-05-04","INCLINATION":"53.0563","CLASSIFICATION_TYPE":"U","OBJECT_ID":"2021-038AA","OBJECT_TYPE":"PAYLOAD","TLE_LINE1":"1 48377U 21038AA  22065.46324637  .00000179  00000-0  30932-4 0  9991","BSTAR":"0.00003093200000","RA_OF_ASC_NODE":"84.7940","ARG_OF_PERICENTER":"62.2862","ELEMENT_SET_NO":"999","MEAN_MOTION":"15.06405593","SEMIMAJOR_AXIS":"6925.331","APOAPSIS":"548.331","PERIOD":"95.592","MEAN_ELEMENT_THEORY":"SGP4","EPHEMERIS_TYPE":"0","OBJECT_NAME":"STARLINK-2499","CENTER_NAME":"EARTH","TIME_SYSTEM":"UTC","SITE":"AFETR","MEAN_MOTION_DOT":"0.00000179","NORAD_CAT_ID":"48377","MEAN_MOTION_DDOT":"0.0000000000000","TLE_LINE2":"2 48377  53.0563  84.7940 0001639  62.2862 297.8293 15.06405593 46479","RCS_SIZE":"LARGE","ECCENTRICITY":"0.00016390","FILE":"3347638"},{"GP_ID":"198067986","MEAN_ANOMALY":"300.7038","PERIAPSIS":"545.939","COUNTRY_CODE":"US","EPOCH":"2022-03-06T11:01:45.561504","CLASSIFICATION_TYPE":"U","LAUNCH_DATE":"2021-05-04","INCLINATION":"53.0552","DECAY_DATE":null,"REV_AT_EPOCH":"4647","REF_FRAME":"TEME","SEMIMAJOR_AXIS":"6925.319","EPHEMERIS_TYPE":"0","PERIOD":"95.592","MEAN_ELEMENT_THEORY":"SGP4","APOAPSIS":"548.428","RA_OF_ASC_NODE":"84.8104","TLE_LINE1":"1 48378U 21038AB  22065.45955511  .00000232  00000-0  34497-4 0  9992","BSTAR":"0.00003449700000","OBJECT_TYPE":"PAYLOAD","OBJECT_ID":"2021-038AB","MEAN_MOTION":"15.06409741","ELEMENT_SET_NO":"999","ARG_OF_PERICENTER":"59.4128","MEAN_MOTION_DDOT":"0.0000000000000","NORAD_CAT_ID":"48378","ECCENTRICITY":"0.00017970","FILE":"3347638","RCS_SIZE":"LARGE","TLE_LINE2":"2 48378  53.0552  84.8104 0001797  59.4128 300.7038 15.06409741 46479","SITE":"AFETR","TIME_SYSTEM":"UTC","OBJECT_NAME":"STARLINK-2526","CENTER_NAME":"EARTH","MEAN_MOTION_DOT":"0.00000232"},{"GP_ID":"198066736","COUNTRY_CODE":"US","PERIAPSIS":"545.965","MEAN_ANOMALY":"302.3123","EPOCH":"2022-03-06T10:56:28.443264","LAUNCH_DATE":"2021-05-04","INCLINATION":"53.0538","CLASSIFICATION_TYPE":"U","DECAY_DATE":null,"REF_FRAME":"TEME","REV_AT_EPOCH":"4647","SEMIMAJOR_AXIS":"6925.305","APOAPSIS":"548.375","PERIOD":"95.591","MEAN_ELEMENT_THEORY":"SGP4","EPHEMERIS_TYPE":"0","OBJECT_TYPE":"PAYLOAD","OBJECT_ID":"2021-038AC","TLE_LINE1":"1 48379U 21038AC  22065.45588476  .00006795  00000-0  47446-3 0  9992","BSTAR":"0.00047446000000","RA_OF_ASC_NODE":"84.8231","ARG_OF_PERICENTER":"57.8034","ELEMENT_SET_NO":"999","MEAN_MOTION":"15.06414213","NORAD_CAT_ID":"48379","MEAN_MOTION_DDOT":"0.0000000000000","TLE_LINE2":"2 48379  53.0538  84.8231 0001740  57.8034 302.3123 15.06414213 46474","RCS_SIZE":"MEDIUM","FILE":"3347638","ECCENTRICITY":"0.00017400","CENTER_NAME":"EARTH","OBJECT_NAME":"STARLINK-2612","SITE":"AFETR","TIME_SYSTEM":"UTC","MEAN_MOTION_DOT":"0.00006795"},{"REV_AT_EPOCH":"4710","REF_FRAME":"TEME","DECAY_DATE":null,"LAUNCH_DATE":"2021-05-04","INCLINATION":"53.0559","CLASSIFICATION_TYPE":"U","EPOCH":"2022-03-06T17:54:24.479424","COUNTRY_CODE":"US","MEAN_ANOMALY":"312.6195","PERIAPSIS":"545.908","GP_ID":"198075311","MEAN_MOTION_DOT":"-0.00000087","TIME_SYSTEM":"UTC","SITE":"AFETR","CENTER_NAME":"EARTH","OBJECT_NAME":"STARLINK-2614","RCS_SIZE":"LARGE","TLE_LINE2":"2 48380  53.0559  83.5209 0001855  47.4950 312.6195 15.06406886 47100","FILE":"3347838","ECCENTRICITY":"0.00018550","NORAD_CAT_ID":"48380","MEAN_MOTION_DDOT":"0.0000000000000","ARG_OF_PERICENTER":"47.4950","MEAN_MOTION":"15.06406886","ELEMENT_SET_NO":"999","TLE_LINE1":"1 48380U 21038AD  22065.74611666 -.00000087  00000-0  13046-4 0  9993","BSTAR":"0.00001304600000","OBJECT_ID":"2021-038AD","OBJECT_TYPE":"PAYLOAD","RA_OF_ASC_NODE":"83.5209","APOAPSIS":"548.477","EPHEMERIS_TYPE":"0","MEAN_ELEMENT_THEORY":"SGP4","PERIOD":"95.592","SEMIMAJOR_AXIS":"6925.327"},{"RA_OF_ASC_NODE":"84.5408","OBJECT_ID":"2021-038AE","OBJECT_TYPE":"PAYLOAD","BSTAR":"0.00045621000000","TLE_LINE1":"1 48381U 21038AE  22065.51854144  .00006520  00000-0  45621-3 0  9999","ELEMENT_SET_NO":"999","MEAN_MOTION":"15.06401420","ARG_OF_PERICENTER":"40.6040","SEMIMAJOR_AXIS":"6925.344","MEAN_ELEMENT_THEORY":"SGP4","PERIOD":"95.592","EPHEMERIS_TYPE":"0","APOAPSIS":"548.349","OBJECT_NAME":"STARLINK-2630","CENTER_NAME":"EARTH","TIME_SYSTEM":"UTC","SITE":"AFETR","MEAN_MOTION_DOT":"0.00006520","MEAN_MOTION_DDOT":"0.0000000000000","NORAD_CAT_ID":"48381","FILE":"3347638","ECCENTRICITY":"0.00016460","TLE_LINE2":"2 48381  53.0525  84.5408 0001646  40.6040 319.5072 15.06401420 46488","RCS_SIZE":"LARGE","PERIAPSIS":"546.069","MEAN_ANOMALY":"319.5072","COUNTRY_CODE":"US","GP_ID":"198067738","DECAY_DATE":null,"REF_FRAME":"TEME","REV_AT_EPOCH":"4648","EPOCH":"2022-03-06T12:26:41.980416","CLASSIFICATION_TYPE":"U","INCLINATION":"53.0525","LAUNCH_DATE":"2021-05-04"},{"GP_ID":"198067486","MEAN_ANOMALY":"309.3701","PERIAPSIS":"546.061","COUNTRY_CODE":"US","EPOCH":"2022-03-06T10:45:50.439744","CLASSIFICATION_TYPE":"U","INCLINATION":"53.0564","LAUNCH_DATE":"2021-05-04","DECAY_DATE":null,"REV_AT_EPOCH":"4647","REF_FRAME":"TEME","SEMIMAJOR_AXIS":"6925.325","EPHEMERIS_TYPE":"0","PERIOD":"95.592","MEAN_ELEMENT_THEORY":"SGP4","APOAPSIS":"548.319","RA_OF_ASC_NODE":"84.8567","BSTAR":"0.00018746000000","TLE_LINE1":"1 48382U 21038AF  22065.44850046  .00002512  00000-0  18746-3 0  9994","OBJECT_ID":"2021-038AF","OBJECT_TYPE":"PAYLOAD","MEAN_MOTION":"15.06407792","ELEMENT_SET_NO":"999","ARG_OF_PERICENTER":"50.7433","MEAN_MOTION_DDOT":"0.0000000000000","NORAD_CAT_ID":"48382","FILE":"3347638","ECCENTRICITY":"0.00016300","RCS_SIZE":"LARGE","TLE_LINE2":"2 48382  53.0564  84.8567 0001630  50.7433 309.3701 15.06407792 46475","SITE":"AFETR","TIME_SYSTEM":"UTC","CENTER_NAME":"EARTH","OBJECT_NAME":"STARLINK-2585","MEAN_MOTION_DOT":"0.00002512"}];
